OBJECT_NAME,OBJECT_ID,EPOCH,MEAN_MOTION,ECCENTRICITY,INCLINATION,RA_OF_ASC_NODE,ARG_OF_PERICENTER,MEAN_ANOMALY,EPHEMERIS_TYPE,CLASSIFICATION_TYPE,NORAD_CAT_ID,ELEMENT_SET_NO,REV_AT_EPOCH,BSTAR,MEAN_MOTION_DOT,MEAN_MOTION_DDOT
NETSAT-2,2020-068X,2026-06-13T12:57:52.153344,15.45852892,.00038991,97.8612,172.3690,37.7157,322.4364,0,U,46507,999,31517,.46446011E-3,.22485E-3,0
GREENCUBE (IO-117),2022-080E,2026-06-13T07:02:28.697280,6.42583230,.0008911,70.1444,299.5995,290.4576,69.5127,0,U,53109,999,9181,0,-.3E-7,0
SITRO-AIS 5 (KATYS),2023-091L,2026-06-13T20:44:18.488832,15.29386556,.001276,97.5068,228.7317,113.7491,246.5089,0,U,57176,999,16383,.4559E-3,.12954E-3,0
SITRO-AIS 6 (CHIRKIN),2023-091AC,2026-06-13T20:02:58.280064,15.25877046,.0013109,97.5076,227.8395,116.7684,243.4897,0,U,57192,999,16377,.41346E-3,.10548E-3,0
SITRO-AIS 8 (ANOKHIN),2023-091AD,2026-06-13T19:43:07.031424,15.32051614,.0011819,97.5065,230.2637,110.2420,250.0093,0,U,57193,999,16393,.47241E-3,.14582E-3,0
SITRO-AIS 7 (FARTUSHNIY),2023-091AE,2026-06-13T20:06:31.286304,15.25565701,.0012943,97.5074,227.6688,117.6685,242.5868,0,U,57194,999,16376,.3983E-3,.10063E-3,0
SITRO-AIS 10 (BURDAEV),2023-091AK,2026-06-13T20:48:53.094816,15.38496747,.0007701,97.5090,235.3300,90.1407,270.0720,0,U,57199,999,16425,.57157E-3,.21683E-3,0
SITRO-AIS 9 (SHCHUKIN),2023-091AM,2026-06-13T19:51:41.614272,15.38007654,.0007951,97.5088,235.0220,90.2363,269.9793,0,U,57201,999,16423,.52737E-3,.1968E-3,0
SITRO-AIS 12 (SMIRENNIY),2023-091AQ,2026-06-13T19:39:06.385824,15.38297899,.0007515,97.5101,235.4781,85.2875,274.9228,0,U,57204,999,16425,.54676E-3,.20601E-3,0
SITRO-AIS 11 (SHEFFER),2023-091AU,2026-06-13T19:59:45.635712,15.38721490,.0007385,97.5099,235.7371,85.5131,274.6958,0,U,57208,999,16427,.53748E-3,.2053E-3,0
SITRO-AIS 25,2024-039R,2026-06-13T19:48:19.289664,14.93499022,.01439,95.3913,232.7821,340.6342,18.9447,0,U,59066,999,12422,.20271E-3,.258E-4,0
SITRO-AIS 26,2024-039S,2026-06-13T19:49:38.280000,14.93295143,.0144243,95.3915,232.6811,341.2057,18.3873,0,U,59067,999,12421,.19684E-3,.2492E-4,0
SITRO-AIS 27,2024-039T,2026-06-13T20:44:37.178880,14.93714440,.0143186,95.3917,232.9773,339.6752,19.8808,0,U,59068,999,12424,.25778E-3,.3304E-4,0
SITRO-AIS 28,2024-039U,2026-06-13T20:12:14.385888,14.93746864,.0143131,95.3915,233.0090,339.5747,19.9788,0,U,59071,999,12424,.22895E-3,.2932E-4,0
GRBBETA,2024-128C,2026-06-13T15:16:01.994016,15.06618836,.0041102,61.9894,228.7249,133.9233,226.5264,0,U,60237,999,10573,.24879E-3,.3556E-4,0
OOV-CUBE (TUBSAT-30),2024-128F,2026-06-13T12:41:36.282624,15.02760687,.00450904,61.9948,238.3294,132.8997,227.5893,0,U,60240,999,10556,.17407525E-3,.2174E-4,0
ROBUSTA-3A (MEDITERRANEE),2024-128J,2026-06-13T15:05:47.321088,15.11641418,.0041704,61.9858,220.8276,127.4925,232.9974,0,U,60243,999,10588,.40508E-3,.6844E-4,0
LASARSAT,2024-247Q,2026-06-13T14:48:20.082240,15.46168743,.0008375,44.9751,282.2745,311.5212,48.4959,0,U,62391,999,8276,.65515E-3,.32689E-3,0
CROCUBE,2024-247T,2026-06-13T17:57:18.050976,15.48041306,.0008204,44.9723,278.9259,315.9203,44.1032,0,U,62394,999,8281,.72514E-3,.38699E-3,0
FORESAIL-1 PRIME,2025-276DS,2026-06-13T18:25:58.278432,15.18672801,.0003912,97.4204,238.1010,110.7328,249.4326,0,U,66778,999,2988,.24359E-3,.4983E-4,0
KNACKSAT-2,1998-067XZ,2026-06-13T16:46:10.210656,15.59677165,.0009611,51.6303,312.0209,199.6131,160.4494,0,U,67683,999,1973,.57858E-3,.46958E-3,0
